[
    {
        "Altitude(m)": 707945.3330769793,
        "Argument of Periapsis(deg)": 0.011390121186627068,
        "Eccentricity": 0.0,
        "Inclination(deg)": 45.0,
        "Latitude(deg)": -19.48100789219018,
        "Longitude(deg)": 99.82650366609272,
        "Mean Anomaly(deg)": 207.89681664748082,
        "RAAN(deg)": -0.010751941458203934,
        "Satellite Name": "Constellation 1 12",
        "Satellite Number": 12,
        "Semi-Major Axis(m)": 7083131.272910544,
        "Time(s)": 190
    },
    {
        "Altitude(m)": 707958.3365088023,
        "Argument of Periapsis(deg)": 0.011450069192872472,
        "Eccentricity": 0.0,
        "Inclination(deg)": 45.0,
        "Latitude(deg)": -19.521369068382754,
        "Longitude(deg)": 99.87054229991536,
        "Mean Anomaly(deg)": 207.95751778773072,
        "RAAN(deg)": -0.010808530623773427,
        "Satellite Name": "Constellation 1 12",
        "Satellite Number": 12,
        "Semi-Major Axis(m)": 7083131.272910544,
        "Time(s)": 191
    },
    {
        "Altitude(m)": 707971.3485781517,
        "Argument of Periapsis(deg)": 0.01151001719911788,
        "Eccentricity": 0.0,
        "Inclination(deg)": 45.0,
        "Latitude(deg)": -19.56171714849559,
        "Longitude(deg)": 99.91460471385972,
        "Mean Anomaly(deg)": 208.0182189279806,
        "RAAN(deg)": -0.010865119789342924,
        "Satellite Name": "Constellation 1 12",
        "Satellite Number": 12,
        "Semi-Major Axis(m)": 7083131.272910544,
        "Time(s)": 192
    },
    {
        "Altitude(m)": 707984.3692430177,
        "Argument of Periapsis(deg)": 0.011569965205363285,
        "Eccentricity": 0.0,
        "Inclination(deg)": 45.0,
        "Latitude(deg)": -19.602052097429958,
        "Longitude(deg)": 99.95869079731627,
        "Mean Anomaly(deg)": 208.07892006823053,
        "RAAN(deg)": -0.010921708954912417,
        "Satellite Name": "Constellation 1 12",
        "Satellite Number": 12,
        "Semi-Major Axis(m)": 7083131.272910544,
        "Time(s)": 193
    },
    {
        "Altitude(m)": 707997.3984613532,
        "Argument of Periapsis(deg)": 0.01162991321160869,
        "Eccentricity": 0.0,
        "Inclination(deg)": 45.0,
        "Latitude(deg)": -19.642373880040562,
        "Longitude(deg)": 100.0028009439944,
        "Mean Anomaly(deg)": 208.13962120848038,
        "RAAN(deg)": -0.010978298120481912,
        "Satellite Name": "Constellation 1 12",
        "Satellite Number": 12,
        "Semi-Major Axis(m)": 7083131.272910544,
        "Time(s)": 194
    },
    {
        "Altitude(m)": 708010.4361910544,
        "Argument of Periapsis(deg)": 0.011689861217854095,
        "Eccentricity": 0.0,
        "Inclination(deg)": 45.0,
        "Latitude(deg)": -19.682682461135517,
        "Longitude(deg)": 100.04693504334065,
        "Mean Anomaly(deg)": 208.20032234873028,
        "RAAN(deg)": -0.011034887286051407,
        "Satellite Name": "Constellation 1 12",
        "Satellite Number": 12,
        "Semi-Major Axis(m)": 7083131.272910544,
        "Time(s)": 195
    },
    {
        "Altitude(m)": 708023.4823899672,
        "Argument of Periapsis(deg)": 0.0117498092240995,
        "Eccentricity": 0.0,
        "Inclination(deg)": 45.0,
        "Latitude(deg)": -19.722977805476077,
        "Longitude(deg)": 100.09109315292652,
        "Mean Anomaly(deg)": 208.26102348898021,
        "RAAN(deg)": -0.011091476451620898,
        "Satellite Name": "Constellation 1 12",
        "Satellite Number": 12,
        "Semi-Major Axis(m)": 7083131.272910544,
        "Time(s)": 196
    },
    {
        "Altitude(m)": 708036.5370159007,
        "Argument of Periapsis(deg)": 0.011809757230344905,
        "Eccentricity": 0.0,
        "Inclination(deg)": 45.0,
        "Latitude(deg)": -19.763259877776758,
        "Longitude(deg)": 100.13527533035136,
        "Mean Anomaly(deg)": 208.32172462923012,
        "RAAN(deg)": -0.011148065617190393,
        "Satellite Name": "Constellation 1 12",
        "Satellite Number": 12,
        "Semi-Major Axis(m)": 7083131.272910544,
        "Time(s)": 197
    },
    {
        "Altitude(m)": 708049.6000266111,
        "Argument of Periapsis(deg)": 0.011869705236590313,
        "Eccentricity": 0.0,
        "Inclination(deg)": 45.0,
        "Latitude(deg)": -19.803528642705007,
        "Longitude(deg)": 100.17948163324232,
        "Mean Anomaly(deg)": 208.38242576948,
        "RAAN(deg)": -0.011204654782759888,
        "Satellite Name": "Constellation 1 12",
        "Satellite Number": 12,
        "Semi-Major Axis(m)": 7083131.272910544,
        "Time(s)": 198
    },
    {
        "Altitude(m)": 708062.6713798144,
        "Argument of Periapsis(deg)": 0.011929653242835719,
        "Eccentricity": 0.0,
        "Inclination(deg)": 45.0,
        "Latitude(deg)": -19.843784064881127,
        "Longitude(deg)": 100.22371211925416,
        "Mean Anomaly(deg)": 208.4431269097299,
        "RAAN(deg)": -0.011261243948329384,
        "Satellite Name": "Constellation 1 12",
        "Satellite Number": 12,
        "Semi-Major Axis(m)": 7083131.272910544,
        "Time(s)": 199
    }
]